[
    {
        "Altitude(m)": 716681.4970349261,
        "Argument of Periapsis(deg)": 0.010251109067964361,
        "Eccentricity": 0.0,
        "Inclination(deg)": 45.0,
        "Latitude(deg)": -42.25280193201724,
        "Longitude(deg)": 84.67719352134056,
        "Mean Anomaly(deg)": -71.43830501726725,
        "RAAN(deg)": 249.99032325268763,
        "Satellite Name": "Constellation 1 1117",
        "Satellite Number": 1117,
        "Semi-Major Axis(m)": 7083131.272910544,
        "Time(s)": 171
    },
    {
        "Altitude(m)": 716673.8630185594,
        "Argument of Periapsis(deg)": 0.010311057074209765,
        "Eccentricity": 0.0,
        "Inclination(deg)": 45.0,
        "Latitude(deg)": -42.23438932712901,
        "Longitude(deg)": 84.75083998236678,
        "Mean Anomaly(deg)": -71.37760387701732,
        "RAAN(deg)": 249.99026666352208,
        "Satellite Name": "Constellation 1 1117",
        "Satellite Number": 1117,
        "Semi-Major Axis(m)": 7083131.272910544,
        "Time(s)": 172
    },
    {
        "Altitude(m)": 716666.2070392441,
        "Argument of Periapsis(deg)": 0.010371005080455171,
        "Eccentricity": 0.0,
        "Inclination(deg)": 45.0,
        "Latitude(deg)": -42.21592398526494,
        "Longitude(deg)": 84.82444129987337,
        "Mean Anomaly(deg)": -71.31690273676746,
        "RAAN(deg)": 249.99021007435653,
        "Satellite Name": "Constellation 1 1117",
        "Satellite Number": 1117,
        "Semi-Major Axis(m)": 7083131.272910544,
        "Time(s)": 173
    },
    {
        "Altitude(m)": 716658.52912507,
        "Argument of Periapsis(deg)": 0.010430953086700577,
        "Eccentricity": 0.0,
        "Inclination(deg)": 45.0,
        "Latitude(deg)": -42.1974059703348,
        "Longitude(deg)": 84.8979974006055,
        "Mean Anomaly(deg)": -71.25620159651754,
        "RAAN(deg)": 249.99015348519092,
        "Satellite Name": "Constellation 1 1117",
        "Satellite Number": 1117,
        "Semi-Major Axis(m)": 7083131.272910544,
        "Time(s)": 174
    },
    {
        "Altitude(m)": 716650.8293041871,
        "Argument of Periapsis(deg)": 0.010490901092945983,
        "Eccentricity": 0.0,
        "Inclination(deg)": 45.0,
        "Latitude(deg)": -42.17883534633455,
        "Longitude(deg)": 84.97150821185743,
        "Mean Anomaly(deg)": -71.19550045626771,
        "RAAN(deg)": 249.99009689602536,
        "Satellite Name": "Constellation 1 1117",
        "Satellite Number": 1117,
        "Semi-Major Axis(m)": 7083131.272910544,
        "Time(s)": 175
    },
    {
        "Altitude(m)": 716643.1076048361,
        "Argument of Periapsis(deg)": 0.010550849099191389,
        "Eccentricity": 0.0,
        "Inclination(deg)": 45.0,
        "Latitude(deg)": -42.1602121773453,
        "Longitude(deg)": 85.04497366147224,
        "Mean Anomaly(deg)": -71.13479931601775,
        "RAAN(deg)": 249.99004030685978,
        "Satellite Name": "Constellation 1 1117",
        "Satellite Number": 1117,
        "Semi-Major Axis(m)": 7083131.272910544,
        "Time(s)": 176
    },
    {
        "Altitude(m)": 716635.364055327,
        "Argument of Periapsis(deg)": 0.010610797105436795,
        "Eccentricity": 0.0,
        "Inclination(deg)": 45.0,
        "Latitude(deg)": -42.14153652753253,
        "Longitude(deg)": 85.11839367784077,
        "Mean Anomaly(deg)": -71.07409817576792,
        "RAAN(deg)": 249.98998371769423,
        "Satellite Name": "Constellation 1 1117",
        "Satellite Number": 1117,
        "Semi-Major Axis(m)": 7083131.272910544,
        "Time(s)": 177
    },
    {
        "Altitude(m)": 716627.598684061,
        "Argument of Periapsis(deg)": 0.0106707451116822,
        "Eccentricity": 0.0,
        "Inclination(deg)": 45.0,
        "Latitude(deg)": -42.122808461145276,
        "Longitude(deg)": 85.19176802180537,
        "Mean Anomaly(deg)": -71.01339703551794,
        "RAAN(deg)": 249.98992712852868,
        "Satellite Name": "Constellation 1 1117",
        "Satellite Number": 1117,
        "Semi-Major Axis(m)": 7083131.272910544,
        "Time(s)": 178
    },
    {
        "Altitude(m)": 716619.811519513,
        "Argument of Periapsis(deg)": 0.010730693117927606,
        "Eccentricity": 0.0,
        "Inclination(deg)": 45.0,
        "Latitude(deg)": -42.1040280425151,
        "Longitude(deg)": 85.26509695904518,
        "Mean Anomaly(deg)": -70.95269589526816,
        "RAAN(deg)": 249.98987053936307,
        "Satellite Name": "Constellation 1 1117",
        "Satellite Number": 1117,
        "Semi-Major Axis(m)": 7083131.272910544,
        "Time(s)": 179
    },
    {
        "Altitude(m)": 716612.0025902325,
        "Argument of Periapsis(deg)": 0.01079064112417301,
        "Eccentricity": 0.0,
        "Inclination(deg)": 45.0,
        "Latitude(deg)": -42.0851953360554,
        "Longitude(deg)": 85.33838025149642,
        "Mean Anomaly(deg)": -70.8919947550182,
        "RAAN(deg)": 249.9898139501975,
        "Satellite Name": "Constellation 1 1117",
        "Satellite Number": 1117,
        "Semi-Major Axis(m)": 7083131.272910544,
        "Time(s)": 180
    },
    {
        "Altitude(m)": 716604.1719248489,
        "Argument of Periapsis(deg)": 0.010850589130418416,
        "Eccentricity": 0.0,
        "Inclination(deg)": 45.0,
        "Latitude(deg)": -42.06631040626065,
        "Longitude(deg)": 85.41161782973762,
        "Mean Anomaly(deg)": -70.83129361476827,
        "RAAN(deg)": 249.98975736103193,
        "Satellite Name": "Constellation 1 1117",
        "Satellite Number": 1117,
        "Semi-Major Axis(m)": 7083131.272910544,
        "Time(s)": 181
    },
    {
        "Altitude(m)": 716596.3195520758,
        "Argument of Periapsis(deg)": 0.01091053713666382,
        "Eccentricity": 0.0,
        "Inclination(deg)": 45.0,
        "Latitude(deg)": -42.047373317705386,
        "Longitude(deg)": 85.48480962489283,
        "Mean Anomaly(deg)": -70.77059247451841,
        "RAAN(deg)": 249.98970077186638,
        "Satellite Name": "Constellation 1 1117",
        "Satellite Number": 1117,
        "Semi-Major Axis(m)": 7083131.272910544,
        "Time(s)": 182
    },
    {
        "Altitude(m)": 716588.445500696,
        "Argument of Periapsis(deg)": 0.010970485142909228,
        "Eccentricity": 0.0,
        "Inclination(deg)": 45.0,
        "Latitude(deg)": -42.028384135043346,
        "Longitude(deg)": 85.55795556863133,
        "Mean Anomaly(deg)": -70.70989133426855,
        "RAAN(deg)": 249.98964418270083,
        "Satellite Name": "Constellation 1 1117",
        "Satellite Number": 1117,
        "Semi-Major Axis(m)": 7083131.272910544,
        "Time(s)": 183
    },
    {
        "Altitude(m)": 716580.5497995773,
        "Argument of Periapsis(deg)": 0.011030433149154634,
        "Eccentricity": 0.0,
        "Inclination(deg)": 45.0,
        "Latitude(deg)": -42.00934292300673,
        "Longitude(deg)": 85.6310555931669,
        "Mean Anomaly(deg)": -70.64919019401854,
        "RAAN(deg)": 249.98958759353522,
        "Satellite Name": "Constellation 1 1117",
        "Satellite Number": 1117,
        "Semi-Major Axis(m)": 7083131.272910544,
        "Time(s)": 184
    },
    {
        "Altitude(m)": 716572.632477668,
        "Argument of Periapsis(deg)": 0.01109038115540004,
        "Eccentricity": 0.0,
        "Inclination(deg)": 45.0,
        "Latitude(deg)": -41.99024974640541,
        "Longitude(deg)": 85.70410946315997,
        "Mean Anomaly(deg)": -70.58848905376858,
        "RAAN(deg)": 249.98953100436964,
        "Satellite Name": "Constellation 1 1117",
        "Satellite Number": 1117,
        "Semi-Major Axis(m)": 7083131.272910544,
        "Time(s)": 185
    },
    {
        "Altitude(m)": 716564.6935639858,
        "Argument of Periapsis(deg)": 0.011150329161645444,
        "Eccentricity": 0.0,
        "Inclination(deg)": 45.0,
        "Latitude(deg)": -41.97110467012592,
        "Longitude(deg)": 85.77711744810426,
        "Mean Anomaly(deg)": -70.52778791351885,
        "RAAN(deg)": 249.98947441520409,
        "Satellite Name": "Constellation 1 1117",
        "Satellite Number": 1117,
        "Semi-Major Axis(m)": 7083131.272910544,
        "Time(s)": 186
    },
    {
        "Altitude(m)": 716556.7330876286,
        "Argument of Periapsis(deg)": 0.01121027716789085,
        "Eccentricity": 0.0,
        "Inclination(deg)": 45.0,
        "Latitude(deg)": -41.95190775913067,
        "Longitude(deg)": 85.85007931374692,
        "Mean Anomaly(deg)": -70.46708677326889,
        "RAAN(deg)": 249.98941782603853,
        "Satellite Name": "Constellation 1 1117",
        "Satellite Number": 1117,
        "Semi-Major Axis(m)": 7083131.272910544,
        "Time(s)": 187
    },
    {
        "Altitude(m)": 716548.7510777805,
        "Argument of Periapsis(deg)": 0.011270225174136258,
        "Eccentricity": 0.0,
        "Inclination(deg)": 45.0,
        "Latitude(deg)": -41.932659078457284,
        "Longitude(deg)": 85.9229949944728,
        "Mean Anomaly(deg)": -70.40638563301896,
        "RAAN(deg)": 249.98936123687298,
        "Satellite Name": "Constellation 1 1117",
        "Satellite Number": 1117,
        "Semi-Major Axis(m)": 7083131.272910544,
        "Time(s)": 188
    },
    {
        "Altitude(m)": 716540.7475636895,
        "Argument of Periapsis(deg)": 0.011330173180381662,
        "Eccentricity": 0.0,
        "Inclination(deg)": 45.0,
        "Latitude(deg)": -41.91335869321756,
        "Longitude(deg)": 85.99586442520824,
        "Mean Anomaly(deg)": -70.345684492769,
        "RAAN(deg)": 249.98930464770743,
        "Satellite Name": "Constellation 1 1117",
        "Satellite Number": 1117,
        "Semi-Major Axis(m)": 7083131.272910544,
        "Time(s)": 189
    }
]